{
  "persons": null,
  "firestations": [
    {
      "idFirestation": "f065cf06-cf52-4335-a9b5-aad769254a3c",
      "station": "1",
      "home": [
        {
          "idHome": "ea412523-fbef-4d2c-a434-2626c74560a1",
          "address": "1509 Culver St",
          "city": "Culver",
          "zip": "97451",
          "persons": null
        },
        {
          "idHome": "39eb4bd4-145b-41c5-9e4e-ce104ffe145a",
          "address": "644 Gershwin Cir",
          "city": "Culver",
          "zip": "97451",
          "persons": null
        },
        {
          "idHome": "c037aedd-54c0-4f94-95e4-fe3e6c0070db",
          "address": "908 73rd St",
          "city": "Culver",
          "zip": "97451",
          "persons": null
        },
        {
          "idHome": "d67edf9d-548c-4c43-a216-cfeb04713e23",
          "address": "947 E. Rose Dr",
          "city": "Culver",
          "zip": "97451",
          "persons": null
        }
      ]
    },
    {
      "idFirestation": "5dab14f2-bcd7-4125-8e19-f311e4260196",
      "station": "2",
      "home": [
        {
          "idHome": "9d29f286-db91-4ee7-8131-c3b61cd82935",
          "address": "29 15th St",
          "city": "Culver",
          "zip": "97451",
          "persons": null
        },
        {
          "idHome": "c1443052-f157-4fff-a61a-5871fc967eaf",
          "address": "892 Downing Ct",
          "city": "Culver",
          "zip": "97451",
          "persons": null
        },
        {
          "idHome": "b7075627-c85f-49f6-aa38-aeab1e55b76f",
          "address": "951 LoneTree Rd",
          "city": "Culver",
          "zip": "97451",
          "persons": null
        }
      ]
    },
    {
      "idFirestation": "afc7dc9a-292f-46a0-87e0-b7c970031ee4",
      "station": "3",
      "home": [
        {
          "idHome": "54873600-a4e0-4550-aef6-2131a06bd81f",
          "address": "834 Binoc Ave",
          "city": "Culver",
          "zip": "97451",
          "persons": null
        },
        {
          "idHome": "de8a7cdc-4c24-4535-8fe6-8e2e7872f904",
          "address": "748 Townings Dr",
          "city": "Culver",
          "zip": "97451",
          "persons": null
        },
        {
          "idHome": "655d506c-63b3-48ec-9bdb-311b530c9e99",
          "address": "112 Steppes Pl",
          "city": "Culver",
          "zip": "97451",
          "persons": null
        },
        {
          "idHome": "de8a7cdc-4c24-4535-8fe6-8e2e7872f904",
          "address": "748 Townings Dr",
          "city": "Culver",
          "zip": "97451",
          "persons": null
        }
      ]
    },
    {
      "idFirestation": "c620c74a-09ef-464e-ac49-aa947bbb26a3",
      "station": "4",
      "home": [
        {
          "idHome": "9b5f9ba4-3537-4ad2-8895-beab7a7ef280",
          "address": "489 Manchester St",
          "city": "Culver",
          "zip": "97451",
          "persons": null
        },
        {
          "idHome": "655d506c-63b3-48ec-9bdb-311b530c9e99",
          "address": "112 Steppes Pl",
          "city": "Culver",
          "zip": "97451",
          "persons": null
        }
      ]
    }
  ],
  "medicalrecords": null,
  "home": [
    {
      "idHome": "ea412523-fbef-4d2c-a434-2626c74560a1",
      "address": "1509 Culver St",
      "city": "Culver",
      "zip": "97451",
      "persons": null
    },
    {
      "idHome": "9d29f286-db91-4ee7-8131-c3b61cd82935",
      "address": "29 15th St",
      "city": "Culver",
      "zip": "97451",
      "persons": null
    },
    {
      "idHome": "54873600-a4e0-4550-aef6-2131a06bd81f",
      "address": "834 Binoc Ave",
      "city": "Culver",
      "zip": "97451",
      "persons": null
    },
    {
      "idHome": "39eb4bd4-145b-41c5-9e4e-ce104ffe145a",
      "address": "644 Gershwin Cir",
      "city": "Culver",
      "zip": "97451",
      "persons": null
    },
    {
      "idHome": "de8a7cdc-4c24-4535-8fe6-8e2e7872f904",
      "address": "748 Townings Dr",
      "city": "Culver",
      "zip": "97451",
      "persons": null
    },
    {
      "idHome": "655d506c-63b3-48ec-9bdb-311b530c9e99",
      "address": "112 Steppes Pl",
      "city": "Culver",
      "zip": "97451",
      "persons": null
    },
    {
      "idHome": "9b5f9ba4-3537-4ad2-8895-beab7a7ef280",
      "address": "489 Manchester St",
      "city": "Culver",
      "zip": "97451",
      "persons": null
    },
    {
      "idHome": "c1443052-f157-4fff-a61a-5871fc967eaf",
      "address": "892 Downing Ct",
      "city": "Culver",
      "zip": "97451",
      "persons": null
    },
    {
      "idHome": "c037aedd-54c0-4f94-95e4-fe3e6c0070db",
      "address": "908 73rd St",
      "city": "Culver",
      "zip": "97451",
      "persons": null
    },
    {
      "idHome": "d67edf9d-548c-4c43-a216-cfeb04713e23",
      "address": "947 E. Rose Dr",
      "city": "Culver",
      "zip": "97451",
      "persons": null
    },
    {
      "idHome": "b7075627-c85f-49f6-aa38-aeab1e55b76f",
      "address": "951 LoneTree Rd",
      "city": "Culver",
      "zip": "97451",
      "persons": null
    }
  ]
}